{
  "norad_id": 41189,
  "name": "ORBCOMM FM116",
  "history": [
    {
      "epoch": "2026-03-28T19:51:51.414624Z",
      "apogee_km": 698.0859733941224,
      "perigee_km": 696.235217049164,
      "latitude_deg": -2.3775436864073334e-05,
      "longitude_deg": 166.34271738474106,
      "height_km": 696.7256252050471,
      "semi_major_axis_km": 7075.297595221643,
      "eccentricity": 0.00013079,
      "inclination_deg": 47.002,
      "raan_deg": 290.5495,
      "arg_perigee_deg": 45.4223,
      "mean_anomaly_deg": 314.6769,
      "mean_motion_rev_day": 14.58766209
    }
  ]
}